CSS (TIANHE)            
1 48274U 21035A   24274.71605524  .00064626  00000+0  68113-3 0  9990
2 48274  41.4664 159.6123 0003415  68.3655 291.7549 15.63318478195609
